STARLINK-3542           
1 51852U 22022A   22091.91667824 -.00713221  00000+0 -10212-1 0  9990
2 51852  53.2177 359.5923 0001490  49.5095 216.9526 15.57978514  3679
STARLINK-3539           
1 51853U 22022B   22091.91667824 -.00713077  00000+0 -10259-1 0  9991
2 51853  53.2177 359.5928 0001594  44.7938 216.4299 15.57850606  3676
STARLINK-3541           
1 51854U 22022C   22091.91667824 -.00713355  00000+0 -10165-1 0  9997
2 51854  53.2177 359.5920 0001386  57.0095 214.6527 15.58106439  3672
STARLINK-3545           
1 51855U 22022D   22091.91667824 -.00713683  00000+0 -10072-1 0  9999
2 51855  53.2177 359.5915 0001325  59.8810 222.0662 15.58362264  3678
STARLINK-3568           
1 51856U 22022E   22091.91667824 -.00713624  00000+0 -10120-1 0  9999
2 51856  53.2177 359.5917 0001368  57.6339 219.1900 15.58234382  3671
STARLINK-3571           
1 51857U 22022F   22091.91667824 -.00714191  00000+0 -99824-2 0  9999
2 51857  53.2177 359.5903 0001259  63.9766 228.1019 15.58618144  3673
STARLINK-3563           
1 51858U 22022G   22091.91667824 -.00713926  00000+0 -10027-1 0  9992
2 51858  53.2177 359.5908 0001283  64.0093 223.0228 15.58490180  3675
STARLINK-3560           
1 51859U 22022H   22091.91667824 -.00107114  00000+0 -76767-3 0  9994
2 51859  53.2188 359.1153 0001053 105.3744  79.7214 15.73226721  3679
STARLINK-3559           
1 51860U 22022J   22091.91667824 -.00088999  00000+0 -63644-3 0  9995
2 51860  53.2177 359.1167 0001021  94.4128  89.4462 15.73200286  3674
STARLINK-3562           
1 51861U 22022K   22091.91667824 -.00096488  00000+0 -69082-3 0  9990
2 51861  53.2187 359.1127 0001178 104.2495  82.1400 15.73205451  3673
STARLINK-3508           
1 51862U 22022L   22091.91667824 -.00115704  00000+0 -83013-3 0  9994
2 51862  53.2172 359.1154 0001297 103.5388  80.9152 15.73234484  3671
STARLINK-3555           
1 51863U 22022M   22091.91667824 -.00093626  00000+0 -67011-3 0  9993
2 51863  53.2188 359.1101 0001029  99.9319  87.7766 15.73200940  3672
STARLINK-3548           
1 51864U 22022N   22091.91667824 -.00124881  00000+0 -89724-3 0  9997
2 51864  53.2177 359.1132 0001050  96.1879  89.5932 15.73236619  3676
STARLINK-3503           
1 51865U 22022P   22091.91667824 -.00087518  00000+0 -62563-3 0  9995
2 51865  53.2179 359.1072 0001128 102.9237  86.0316 15.73201542  3677
STARLINK-3553           
1 51866U 22022Q   22091.91667824 -.00120104  00000+0 -86310-3 0  9991
2 51866  53.2186 359.1108 0001190  95.1741  91.8923 15.73213736  3674
STARLINK-3590           
1 51867U 22022R   22091.91667824 -.00113402  00000+0 -81420-3 0  9992
2 51867  53.2189 359.1069 0001118 104.8473  84.7614 15.73209305  3679
STARLINK-3578           
1 51868U 22022S   22091.91667824 -.00094060  00000+0 -67307-3 0  9999
2 51868  53.2186 359.1083 0001241  97.4638  90.8392 15.73207449  3678
STARLINK-3588           
1 51869U 22022T   22091.91667824 -.00090302  00000+0 -64589-3 0  9994
2 51869  53.2168 359.1022 0001189 105.4263  86.0939 15.73201089  3675
STARLINK-3591           
1 51870U 22022U   22091.91667824 -.00114074  00000+0 -81822-3 0  9998
2 51870  53.2187 359.1043 0001075 100.0021  90.2435 15.73234924  3670
STARLINK-3567           
1 51871U 22022V   22091.91667824 -.00080515  00000+0 -57502-3 0  9999
2 51871  53.2171 359.1013 0001154  91.1110 101.0260 15.73189852  3674
STARLINK-3554           
1 51872U 22022W   22091.91667824 -.00098043  00000+0 -70216-3 0  9992
2 51872  53.2187 359.1035 0001227  85.7138 105.1329 15.73205063  3670
STARLINK-3582           
1 51873U 22022X   22091.91667824 -.00115342  00000+0 -82826-3 0  9995
2 51873  53.2185 359.0973 0001262  95.3322  98.7232 15.73212686  3679
STARLINK-3574           
1 51874U 22022Y   22091.91667824 -.00115030  00000+0 -82684-3 0  9992
2 51874  53.2187 359.0992 0001186  90.4640 102.3480 15.73188595  3675
STARLINK-3585           
1 51875U 22022Z   22091.91667824 -.00058246  00000+0 -41341-3 0  9993
2 51875  53.2173 359.0948 0001011  90.6851 104.6629 15.73203772  3670
STARLINK-3583           
1 51876U 22022AA  22091.91667824 -.00132594  00000+0 -95522-3 0  9993
2 51876  53.2189 359.0984 0000954  93.8763  99.5862 15.73202480  3676
STARLINK-3556           
1 51877U 22022AB  22091.91667824 -.00109360  00000+0 -78469-3 0  9990
2 51877  53.2171 359.0923 0001420  82.6610 113.9269 15.73206953  3678
STARLINK-3575           
1 51878U 22022AC  22091.91667824 -.00074629  00000+0 -53154-3 0  9994
2 51878  53.2189 359.0959 0001168 100.7140  93.9933 15.73222511  3679
STARLINK-3572           
1 51879U 22022AD  22091.91667824 -.00105104  00000+0 -75404-3 0  9990
2 51879  53.2172 359.0902 0001302  91.3408 106.5441 15.73193764  3674
STARLINK-3566           
1 51880U 22022AE  22091.91667824 -.00109400  00000+0 -78496-3 0  9999
2 51880  53.2190 359.0932 0001281 102.9038  93.0992 15.73208226  3674
STARLINK-3504           
1 51881U 22022AF  22091.91667824 -.00079279  00000+0 -56579-3 0  9998
2 51881  53.2170 359.0869 0001012  87.0627 112.1150 15.73200383  3676
STARLINK-3570           
1 51882U 22022AG  22091.91667824 -.00102641  00000+0 -73624-3 0  9999
2 51882  53.2189 359.0908 0001295  80.9741 116.2544 15.73187882  3673
STARLINK-3576           
1 51883U 22022AH  22091.91667824 -.00132158  00000+0 -95629-3 0  9995
2 51883  53.2175 359.0738 0001344  85.2461 115.1223 15.73096825  3670
STARLINK-3577           
1 51884U 22022AJ  22091.91667824 -.00116264  00000+0 -83569-3 0  9996
2 51884  53.2171 359.0878 0001162  91.4539 107.1212 15.73194075  3670
STARLINK-3584           
1 51885U 22022AK  22091.91667824 -.00104421  00000+0 -74829-3 0  9998
2 51885  53.2172 359.0822 0001391  90.1327 111.6063 15.73217214  3671
STARLINK-3565           
1 51886U 22022AL  22091.91667824 -.00102539  00000+0 -73479-3 0  9997
2 51886  53.2189 359.0857 0001059  69.9906 129.7923 15.73210784  3676
STARLINK-3551           
1 51887U 22022AM  22091.91667824 -.00064784  00000+0 -46135-3 0  9996
2 51887  53.2173 359.0808 0001420  98.4853 103.8910 15.73168442  3678
STARLINK-3536           
1 51888U 22022AN  22091.91667824 -.00149392  00000+0 -10843-2 0  9992
2 51888  53.2174 359.0723 0001256  83.1088 117.9261 15.73086182  3679
STARLINK-3547           
1 51889U 22022AP  22091.91667824 -.00083122  00000+0 -59376-3 0  9996
2 51889  53.2173 359.0770 0001024 100.5630 103.7092 15.73198249  3674
STARLINK-3519           
1 51890U 22022AQ  22091.91667824 -.00101675  00000+0 -72905-3 0  9995
2 51890  53.2169 359.0792 0001080  79.3144 123.7130 15.73192712  3674
STARLINK-3549           
1 51891U 22022AR  22091.91667824 -.00107714  00000+0 -77296-3 0  9994
2 51891  53.2176 359.0761 0001255  82.5061 122.3989 15.73198548  3677
STARLINK-3587           
1 51892U 22022AS  22091.91667824 -.00047949  00000+0 -33959-3 0  9996
2 51892  53.2172 359.0780 0001081  81.6494 122.0048 15.73171708  3674
STARLINK-3579           
1 51893U 22022AT  22091.91667824 -.00113336  00000+0 -81370-3 0  9991
2 51893  53.2175 359.0736 0001184  86.4583 119.7081 15.73209666  3670
STARLINK-3595           
1 51894U 22022AU  22091.91667824 -.00105210  00000+0 -75408-3 0  9999
2 51894  53.2170 359.0737 0001257 101.9014 103.6784 15.73216509  3676
STARLINK-3594           
1 51895U 22022AV  22091.91667824 -.00067479  00000+0 -48062-3 0  9990
2 51895  53.2174 359.0710 0000983  86.5286 120.9599 15.73182209  3671
STARLINK-3593           
1 51896U 22022AW  22091.91667824 -.00084602  00000+0 -60452-3 0  9995
2 51896  53.2190 359.0717 0001076  82.5007 124.3454 15.73197912  3673
STARLINK-3598           
1 51897U 22022AX  22091.91667824 -.00085339  00000+0 -60945-3 0  9991
2 51897  53.2173 359.0698 0001131  95.7859 112.2523 15.73214196  3673
STARLINK-3597           
1 51898U 22022AY  22091.91667824 -.00113966  00000+0 -81809-3 0  9992
2 51898  53.2170 359.0674 0001055  86.8191 121.8964 15.73216205  3678
FALCON 9 DEB            
1 51899U 22022AZ  22091.88581457  .00569818  15704-3  10120-2 0  9993
2 51899  53.2269 355.6279 0002621 332.0270  28.0621 16.01310950  4678
FALCON 9 DEB            
1 51900U 22022BA  22091.68295846  .00586570  17014-3  94873-3 0  9996
2 51900  53.2211 356.4745 0003379 272.8416  87.2230 16.02894917  4640
FALCON 9 DEB            
1 51901U 22022BB  22091.78673610  .00621479  19374-3  94936-3 0  9996
2 51901  53.2213 355.6762 0005597 318.1859  41.8746 16.03828179  4660
FALCON 9 DEB            
1 51902U 22022BC  22091.84586162  .00787897  31988-3  11614-2 0  9992
2 51902  53.2173 355.3263 0006314 300.0146  60.0261 16.04422063  4675
2022-023A               
1 51946U 22023A   22092.11369285  .00051939  00000+0  22312-2 0  9992
2 51946  63.4546  99.9659 0018841 314.5998 122.3849 15.22203190  4258
2022-023B               
1 51947U 22023B   22092.04917666 -.00028508  00000+0 -12340-2 0  9995
2 51947  63.4495 100.1494 0019987 314.1628 146.4836 15.21850555  4246
2022-023C               
1 51948U 22023C   22091.53667088 -.00078840  00000+0 -34265-2 0  9993
2 51948  63.4498 101.9347 0018229 302.7771 196.8174 15.22149475  4164
2022-023D               
1 51949U 22023D   22092.11960449 -.00066486  00000+0 -29140-2 0  9995
2 51949  63.4518  99.9845 0017145 311.2929 127.0705 15.21809523  4255
2022-023E               
1 51950U 22023E   22091.21091053 -.00008857  00000+0 -37645-3 0  9991
2 51950  63.4466 103.0976 0016684 307.5292 177.0146 15.21812823  4115
2022-023F               
1 51951U 22023F   22091.92585682  .00006683  00000+0  29917-3 0  9992
2 51951  63.4431 100.6695 0017291 303.3949 121.8155 15.22049697  4228
2022-023G               
1 51952U 22023G   22091.84449807  .00006970  00000+0  28395-3 0  9990
2 51952  63.4391 100.8219 0018041 306.6274 114.2958 15.25196610  4216
2022-023H               
1 51953U 22023H   22091.80997512  .00002684  00000+0  19638-3 0  9996
2 51953  63.6387 105.4108 0114912 247.3482 111.5480 15.00983791  4147
